NORAD_CAT_ID,OBJECT_NAME,OBJECT_TYPE,EPOCH,MEAN_MOTION,ECCENTRICITY,INCLINATION,RA_OF_ASC_NODE,ARG_OF_PERICENTER,MEAN_ANOMALY,BSTAR,MEAN_MOTION_DOT,MEAN_MOTION_DDOT,TLE_LINE0,TLE_LINE1,TLE_LINE2,SEMIMAJOR_AXIS,PERIOD,APOGEE,PERIGEE,DECAYED
52486.0,STARLINK-3918,PAYLOAD,2024-03-15 06:46:03,15.08839227,0.0001529,53.2173,71.1111,101.6813,258.435,0.00018964,2.731e-05,0.0,0 STARLINK-3918,1 52486U 22049AM  24075.28198441  .00002731  00000-0  18964-3 0  9991,2 52486  53.2173  71.1111 0001529 101.6813 258.4350 15.08839227102899,6917.883,95.438,540.805,538.69,0.0
52486.0,STARLINK-3918,PAYLOAD,2024-03-16 06:36:50,15.08840598,0.000148,53.2171,66.6505,97.6198,262.4962,0.00011967,1.617e-05,0.0,0 STARLINK-3918,1 52486U 22049AM  24076.27558487  .00001617  00000-0  11967-3 0  9999,2 52486  53.2171  66.6505 0001480  97.6198 262.4962 15.08840598103202,6917.879,95.438,540.767,538.72,0.0
52486.0,STARLINK-3918,PAYLOAD,2024-03-17 08:03:00,15.08840923,0.0001448,53.217,61.8907,95.9939,264.1218,7.4906e-05,9.04e-06,0.0,0 STARLINK-3918,1 52486U 22049AM  24077.33542608  .00000904  00000-0  74906-4 0  9996,2 52486  53.2170  61.8907 0001448  95.9939 264.1218 15.08840923103364,6917.878,95.437,540.744,538.741,0.0
52486.0,STARLINK-3918,PAYLOAD,2024-03-18 06:18:24,15.08841065,0.0001509,53.2174,57.7269,89.7502,270.3663,9.2565e-05,1.186e-05,0.0,0 STARLINK-3918,1 52486U 22049AM  24078.26278831  .00001186  00000-0  92565-4 0  9997,2 52486  53.2174  57.7269 0001509  89.7502 270.3663 15.08841065103347,6917.877,95.437,540.786,538.698,0.0
52486.0,STARLINK-3918,PAYLOAD,2024-03-18 22:12:16,15.08841917,0.0001846,53.2188,54.7589,70.6359,289.4833,0.0001113,1.484e-05,0.0,0 STARLINK-3918,1 52486U 22049AM  24078.92519210  .00001484  00000-0  11130-3 0  9998,2 52486  53.2188  54.7589 0001846  70.6359 289.4833 15.08841917103444,6917.875,95.437,541.017,538.462,0.0
52486.0,STARLINK-3918,PAYLOAD,2024-03-19 04:33:49,15.08844429,0.0001922,53.2182,53.5705,68.5154,291.6042,0.00016342,2.314e-05,0.0,0 STARLINK-3918,1 52486U 22049AM  24079.19015119  .00002314  00000-0  16342-3 0  9990,2 52486  53.2182  53.5705 0001922  68.5154 291.6042 15.08844429103649,6917.867,95.437,541.061,538.402,0.0
52486.0,STARLINK-3918,PAYLOAD,2024-03-19 07:44:34,15.08851464,0.0001769,53.2173,52.9724,77.1449,282.9741,0.00026449,3.925e-05,0.0,0 STARLINK-3918,1 52486U 22049AM  24079.32262638  .00003925  00000-0  26449-3 0  9993,2 52486  53.2173  52.9724 0001769  77.1449 282.9741 15.08851464103663,6917.845,95.437,540.934,538.487,0.0
52486.0,STARLINK-3918,PAYLOAD,2024-03-20 04:24:35,15.08853179,0.0001582,53.2168,49.1059,99.6129,260.5042,0.0001834,2.633e-05,0.0,0 STARLINK-3918,1 52486U 22049AM  24080.18374109  .00002633  00000-0  18340-3 0  9992,2 52486  53.2168  49.1059 0001582  99.6129 260.5042 15.08853179103798,6917.84,95.437,540.8,538.611,0.0
52486.0,STARLINK-3918,PAYLOAD,2024-03-21 04:15:22,15.08839571,0.000149,53.2173,44.6445,98.5745,261.5416,-2.8222e-05,-7.37e-06,0.0,0 STARLINK-3918,1 52486U 22049AM  24081.17734774 -.00000737  00000-0 -28222-4 0  9996,2 52486  53.2173  44.6445 0001490  98.5745 261.5416 15.08839571103946,6917.882,95.438,540.777,538.716,0.0
52486.0,STARLINK-3918,PAYLOAD,2024-03-22 02:30:46,15.08852076,0.0001325,53.2167,40.482,89.0031,271.1113,0.00012013,1.625e-05,0.0,0 STARLINK-3918,1 52486U 22049AM  24082.10470153  .00001625  00000-0  12013-3 0  9993,2 52486  53.2167  40.4820 0001325  89.0031 271.1113 15.08852076104082,6917.843,95.437,540.625,538.792,0.0
52486.0,STARLINK-3918,PAYLOAD,2024-03-22 07:16:55,15.08857354,0.0002022,53.2175,39.5849,123.361,236.7575,0.00037377,5.668e-05,0.0,0 STARLINK-3918,1 52486U 22049AM  24082.30341635  .00005668  00000-0  37377-3 0  9998,2 52486  53.2175  39.5849 0002022 123.3610 236.7575 15.08857354103959,6917.827,95.436,541.091,538.294,0.0
52486.0,STARLINK-3918,PAYLOAD,2024-03-22 21:35:24,15.08823243,8.68e-05,53.2179,36.913,35.5946,324.5103,-0.00020221,-3.503e-05,0.0,0 STARLINK-3918,1 52486U 22049AM  24082.89959342 -.00003503  00000-0 -20221-3 0  9990,2 52486  53.2179  36.9130 0000868  35.5946 324.5103 15.08823243104201,6917.932,95.439,540.397,539.196,0.0
52486.0,STARLINK-3918,PAYLOAD,2024-03-23 05:32:20,15.0883451,0.0001291,53.2182,35.427,86.1618,273.9522,-7.5208e-06,-4.08e-06,0.0,0 STARLINK-3918,1 52486U 22049AM  24083.23079081 -.00000408  00000-0 -75208-5 0  9990,2 52486  53.2182  35.4270 0001291  86.1618 273.9522 15.08834510104259,6917.897,95.438,540.655,538.869,0.0
52486.0,STARLINK-3918,PAYLOAD,2024-03-24 05:23:06,15.08883881,0.0001711,53.2204,30.9707,86.4107,273.7081,0.0018764,0.00029737,0.0,0 STARLINK-3918,1 52486U 22049AM  24084.22438490  .00029737  00000-0  18764-2 0  9998,2 52486  53.2204  30.9707 0001711  86.4107 273.7081 15.08883881104402,6917.746,95.435,540.795,538.428,0.0
52486.0,STARLINK-3918,PAYLOAD,2024-03-24 19:41:35,15.0886415,0.0001093,53.2184,28.2948,110.5377,249.5732,0.0017897,0.00028329,0.0,0 STARLINK-3918,1 52486U 22049AM  24084.82054459  .00028329  00000-0  17897-2 0  9995,2 52486  53.2184  28.2948 0001093 110.5377 249.5732 15.08864150104498,6917.807,95.436,540.428,538.915,0.0
52486.0,STARLINK-3918,PAYLOAD,2024-03-25 05:13:53,15.08862874,0.0001587,53.2179,26.5101,75.677,284.4398,0.00080341,0.00012529,0.0,0 STARLINK-3918,1 52486U 22049AM  24085.21798198  .00012529  00000-0  80341-3 0  9994,2 52486  53.2179  26.5101 0001587  75.6770 284.4398 15.08862874104554,6917.81,95.436,540.773,538.578,0.0
52486.0,STARLINK-3918,PAYLOAD,2024-03-25 13:10:49,15.08836089,0.0001316,53.2201,25.0194,104.9922,255.1216,0.00047506,7.28e-05,0.0,0 STARLINK-3918,1 52486U 22049AM  24085.54918638  .00007280  00000-0  47506-3 0  9997,2 52486  53.2201  25.0194 0001316 104.9922 255.1216 15.08836089104600,6917.892,95.438,540.668,538.847,0.0
52486.0,STARLINK-3918,PAYLOAD,2024-03-26 05:04:42,15.08826063,0.0001752,53.2178,22.0434,102.8152,257.3036,0.00072821,0.00011316,0.0,0 STARLINK-3918,1 52486U 22049AM  24086.21160305  .00011316  00000-0  72821-3 0  9995,2 52486  53.2178  22.0434 0001752 102.8152 257.3036 15.08826063104709,6917.923,95.438,541.0,538.576,0.0
52486.0,STARLINK-3918,PAYLOAD,2024-03-26 13:01:38,15.08825468,0.0001822,53.2172,20.5589,101.5663,258.5534,0.0008477,0.00013224,0.0,0 STARLINK-3918,1 52486U 22049AM  24086.54280841  .00013224  00000-0  84770-3 0  9995,2 52486  53.2172  20.5589 0001822 101.5663 258.5534 15.08825468104599,6917.925,95.438,541.05,538.529,0.0
52486.0,STARLINK-3918,PAYLOAD,2024-03-27 12:52:25,15.08847856,0.0001609,53.2169,16.0978,110.3007,249.8158,0.00048509,7.442e-05,0.0,0 STARLINK-3918,1 52486U 22049AM  24087.53640530  .00007442  00000-0  48509-3 0  9995,2 52486  53.2169  16.0978 0001609 110.3007 249.8158 15.08847856104905,6917.856,95.437,540.834,538.608,0.0
52486.0,STARLINK-3918,PAYLOAD,2024-03-27 19:13:57,15.08849431,0.0001502,53.2157,14.9094,106.6075,253.5082,0.00047177,7.23e-05,0.0,0 STARLINK-3918,1 52486U 22049AM  24087.80136421  .00007230  00000-0  47177-3 0  9999,2 52486  53.2157  14.9094 0001502 106.6075 253.5082 15.08849431104788,6917.852,95.437,540.756,538.678,0.0
52486.0,STARLINK-3918,PAYLOAD,2024-03-28 04:46:16,15.08863315,0.0001726,53.2195,13.1255,106.7252,253.393,0.00068054,0.00010566,0.0,0 STARLINK-3918,1 52486U 22049AM  24088.19879836  .00010566  00000-0  68054-3 0  9999,2 52486  53.2195  13.1255 0001726 106.7252 253.3930 15.08863315104840,6917.809,95.436,540.868,538.48,0.0
52486.0,STARLINK-3918,PAYLOAD,2024-03-28 22:15:30,15.08846146,0.0001608,53.2163,9.8546,106.447,253.6699,0.00010903,1.448e-05,0.0,0 STARLINK-3918,1 52486U 22049AM  24088.92743993  .00001448  00000-0  10903-3 0  9993,2 52486  53.2163   9.8546 0001608 106.4470 253.6699 15.08846146104958,6917.862,95.437,540.839,538.614,0.0
52486.0,STARLINK-3918,PAYLOAD,2024-03-29 01:26:17,15.0884667,0.0001393,53.2175,9.2587,93.691,266.4242,0.00017818,2.549e-05,0.0,0 STARLINK-3918,1 52486U 22049AM  24089.05992007  .00002549  00000-0  17818-3 0  9995,2 52486  53.2175   9.2587 0001393  93.6910 266.4242 15.08846670105136,6917.86,95.437,540.689,538.761,0.0
52486.0,STARLINK-3918,PAYLOAD,2024-03-29 18:55:31,15.08843284,0.0001561,53.2191,5.9898,98.9444,261.1725,0.00024707,3.647e-05,0.0,0 STARLINK-3918,1 52486U 22049AM  24089.78856190  .00003647  00000-0  24707-3 0  9992,2 52486  53.2191   5.9898 0001561  98.9444 261.1725 15.08843284105247,6917.87,95.437,540.815,538.655,0.0
52486.0,STARLINK-3918,PAYLOAD,2024-03-29 22:06:17,15.0884659,0.000155,53.2192,5.3966,103.104,257.0126,0.0001973,2.854e-05,0.0,0 STARLINK-3918,1 52486U 22049AM  24089.92103988  .00002854  00000-0  19730-3 0  9997,2 52486  53.2192   5.3966 0001550 103.1040 257.0126 15.08846590105104,6917.86,95.437,540.798,538.653,0.0
52486.0,STARLINK-3918,PAYLOAD,2024-03-30 10:49:22,15.08846929,0.0001366,53.2186,3.0196,95.1581,264.9567,0.00035692,5.398e-05,0.0,0 STARLINK-3918,1 52486U 22049AM  24090.45095867  .00005398  00000-0  35692-3 0  9994,2 52486  53.2186   3.0196 0001366  95.1581 264.9567 15.08846929105182,6917.859,95.437,540.669,538.779,0.0
52486.0,STARLINK-3918,PAYLOAD,2024-03-30 21:57:05,15.0883397,0.0001476,53.2191,0.9377,92.6074,267.5087,1.0773e-05,-1.17e-06,0.0,0 STARLINK-3918,1 52486U 22049AM  24090.91464588 -.00000117  00000-0  10773-4 0  9994,2 52486  53.2191   0.9377 0001476  92.6074 267.5087 15.08833970105252,6917.899,95.438,540.785,538.743,0.0
52486.0,STARLINK-3918,PAYLOAD,2024-03-31 01:07:51,15.0883541,0.000145,53.2191,0.3439,92.9828,267.133,5.4992e-05,5.87e-06,0.0,0 STARLINK-3918,1 52486U 22049AM  24091.04712719  .00000587  00000-0  54992-4 0  9992,2 52486  53.2191   0.3439 0001450  92.9828 267.1330 15.08835410105435,6917.894,95.438,540.763,538.756,0.0
52486.0,STARLINK-3918,PAYLOAD,2024-03-31 10:40:10,15.08843371,0.000152,53.2195,358.5593,96.7211,263.3954,0.00018759,2.699e-05,0.0,0 STARLINK-3918,1 52486U 22049AM  24091.44456427  .00002699  00000-0  18759-3 0  9993,2 52486  53.2195 358.5593 0001520  96.7211 263.3954 15.08843371105338,6917.87,95.437,540.787,538.684,0.0
